{
  "type": "FeatureCollection",
  "features": [
    {
      "type": "Feature",
      "properties": {
        "norad_id": 28054,
        "name": "DMSP 5D-3 F16 (USA 172)",
        "group": "weather",
        "lat": 30.053141823943907,
        "lon": -2.610598660613601,
        "alt_km": 840.6430541725513,
        "timestamp": "2025-12-11T05:00:25.954362+00:00",
        "meta_object_name": "DMSP 5D-3 F16 (USA 172)",
        "meta_object_id": "2003-048A",
        "meta_epoch": "2025-12-10T23:54:55.067616",
        "meta_mean_motion": 14.14423232,
        "meta_eccentricity": 0.00065622,
        "meta_inclination": 99.0048,
        "meta_ra_of_asc_node": 2.4397,
        "meta_arg_of_pericenter": 326.3382,
        "meta_mean_anomaly": 64.44,
        "meta_ephemeris_type": 0,
        "meta_classification_type": "U",
        "meta_norad_cat_id": 28054,
        "meta_element_set_no": 999,
        "meta_rev_at_epoch": 14288,
        "meta_bstar": 0.0001278796,
        "meta_mean_motion_dot": 1.99e-06,
        "meta_mean_motion_ddot": 0,
        "tle_line1": "1 28054U 03048A   25344.99647069  .00000199  00000+0  12788-3 0  9999",
        "tle_line2": "2 28054  99.0048   2.4397 0006562 326.3382  64.4400 14.14423232142889"
      },
      "geometry": {
        "type": "Point",
        "coordinates": [
          -2.610598660613601,
          30.053141823943907
        ]
      }
    },
    {
      "type": "Feature",
      "properties": {
        "norad_id": 28912,
        "name": "METEOSAT-9 (MSG-2)",
        "group": "weather",
        "lat": 5.116492958808206,
        "lon": -158.76081788580018,
        "alt_km": 35773.37118839935,
        "timestamp": "2025-12-11T05:00:25.954411+00:00",
        "meta_object_name": "METEOSAT-9 (MSG-2)",
        "meta_object_id": "2005-049B",
        "meta_epoch": "2025-12-10T20:37:31.694304",
        "meta_mean_motion": 1.00275463,
        "meta_eccentricity": 0.0003704,
        "meta_inclination": 8.9357,
        "meta_ra_of_asc_node": 55.9949,
        "meta_arg_of_pericenter": 190.2808,
        "meta_mean_anomaly": 188.5842,
        "meta_ephemeris_type": 0,
        "meta_classification_type": "U",
        "meta_norad_cat_id": 28912,
        "meta_element_set_no": 999,
        "meta_rev_at_epoch": 511,
        "meta_bstar": 0,
        "meta_mean_motion_dot": 1.27e-06,
        "meta_mean_motion_ddot": 0,
        "tle_line1": "1 28912U 05049B   25344.85939461  .00000127  00000+0  00000+0 0  9991",
        "tle_line2": "2 28912   8.9357  55.9949 0003704 190.2808 188.5842  1.00275463  5110"
      },
      "geometry": {
        "type": "Point",
        "coordinates": [
          -158.76081788580018,
          5.116492958808206
        ]
      }
    },
    {
      "type": "Feature",
      "properties": {
        "norad_id": 29522,
        "name": "DMSP 5D-3 F17 (USA 191)",
        "group": "weather",
        "lat": -31.404627860881334,
        "lon": -3.981727017630622,
        "alt_km": 849.5661367206931,
        "timestamp": "2025-12-11T05:00:25.954429+00:00",
        "meta_object_name": "DMSP 5D-3 F17 (USA 191)",
        "meta_object_id": "2006-050A",
        "meta_epoch": "2025-12-10T22:22:07.412736",
        "meta_mean_motion": 14.14918237,
        "meta_eccentricity": 0.00093322,
        "meta_inclination": 98.7394,
        "meta_ra_of_asc_node": 350.3588,
        "meta_arg_of_pericenter": 230.5154,
        "meta_mean_anomaly": 129.5195,
        "meta_ephemeris_type": 0,
        "meta_classification_type": "U",
        "meta_norad_cat_id": 29522,
        "meta_element_set_no": 999,
        "meta_rev_at_epoch": 98579,
        "meta_bstar": 0.00015763063,
        "meta_mean_motion_dot": 2.61e-06,
        "meta_mean_motion_ddot": 0,
        "tle_line1": "1 29522U 06050A   25344.93203024  .00000261  00000+0  15763-3 0  9995",
        "tle_line2": "2 29522  98.7394 350.3588 0009332 230.5154 129.5195 14.14918237985791"
      },
      "geometry": {
        "type": "Point",
        "coordinates": [
          -3.981727017630622,
          -31.404627860881334
        ]
      }
    },
    {
      "type": "Feature",
      "properties": {
        "norad_id": 32958,
        "name": "FENGYUN 3A",
        "group": "weather",
        "lat": 16.683577378710314,
        "lon": -77.85323580945011,
        "alt_km": 824.7659232639162,
        "timestamp": "2025-12-11T05:00:25.954443+00:00",
        "meta_object_name": "FENGYUN 3A",
        "meta_object_id": "2008-026A",
        "meta_epoch": "2025-12-10T13:42:10.579392",
        "meta_mean_motion": 14.19513473,
        "meta_eccentricity": 0.0007991,
        "meta_inclination": 98.6695,
        "meta_ra_of_asc_node": 284.1435,
        "meta_arg_of_pericenter": 317.2846,
        "meta_mean_anomaly": 42.7709,
        "meta_ephemeris_type": 0,
        "meta_classification_type": "U",
        "meta_norad_cat_id": 32958,
        "meta_element_set_no": 999,
        "meta_rev_at_epoch": 90864,
        "meta_bstar": 0.00012071,
        "meta_mean_motion_dot": 2.11e-06,
        "meta_mean_motion_ddot": 0,
        "tle_line1": "1 32958U 08026A   25344.57095578  .00000211  00000+0  12071-3 0  9994",
        "tle_line2": "2 32958  98.6695 284.1435 0007991 317.2846  42.7709 14.19513473908640"
      },
      "geometry": {
        "type": "Point",
        "coordinates": [
          -77.85323580945011,
          16.683577378710314
        ]
      }
    },
    {
      "type": "Feature",
      "properties": {
        "norad_id": 35491,
        "name": "GOES 14",
        "group": "weather",
        "lat": -0.7343314033778983,
        "lon": 46.60246211477576,
        "alt_km": 35802.61737945944,
        "timestamp": "2025-12-11T05:00:25.954457+00:00",
        "meta_object_name": "GOES 14",
        "meta_object_id": "2009-033A",
        "meta_epoch": "2025-12-10T16:27:03.557376",
        "meta_mean_motion": 1.00162418,
        "meta_eccentricity": 0.0003441,
        "meta_inclination": 1.1989,
        "meta_ra_of_asc_node": 85.3725,
        "meta_arg_of_pericenter": 333.0778,
        "meta_mean_anomaly": 159.5039,
        "meta_ephemeris_type": 0,
        "meta_classification_type": "U",
        "meta_norad_cat_id": 35491,
        "meta_element_set_no": 999,
        "meta_rev_at_epoch": 470,
        "meta_bstar": 0,
        "meta_mean_motion_dot": -4.6e-07,
        "meta_mean_motion_ddot": 0,
        "tle_line1": "1 35491U 09033A   25344.68545784 -.00000046  00000+0  00000+0 0  9991",
        "tle_line2": "2 35491   1.1989  85.3725 0003441 333.0778 159.5039  1.00162418  4701"
      },
      "geometry": {
        "type": "Point",
        "coordinates": [
          46.60246211477576,
          -0.7343314033778983
        ]
      }
    },
    {
      "type": "Feature",
      "properties": {
        "norad_id": 35951,
        "name": "DMSP 5D-3 F18 (USA 210)",
        "group": "weather",
        "lat": -16.40724877686978,
        "lon": 138.97759720515555,
        "alt_km": 853.4542073445582,
        "timestamp": "2025-12-11T05:00:25.954470+00:00",
        "meta_object_name": "DMSP 5D-3 F18 (USA 210)",
        "meta_object_id": "2009-057A",
        "meta_epoch": "2025-12-10T21:17:35.031264",
        "meta_mean_motion": 14.14767473,
        "meta_eccentricity": 0.00120763,
        "meta_inclination": 98.8833,
        "meta_ra_of_asc_node": 321.2973,
        "meta_arg_of_pericenter": 67.5863,
        "meta_mean_anomaly": 292.6589,
        "meta_ephemeris_type": 0,
        "meta_classification_type": "U",
        "meta_norad_cat_id": 35951,
        "meta_element_set_no": 999,
        "meta_rev_at_epoch": 83296,
        "meta_bstar": 0.0002341826,
        "meta_mean_motion_dot": 4.07e-06,
        "meta_mean_motion_ddot": 0,
        "tle_line1": "1 35951U 09057A   25344.88721101  .00000407  00000+0  23418-3 0  9991",
        "tle_line2": "2 35951  98.8833 321.2973 0012076  67.5863 292.6589 14.14767473832965"
      },
      "geometry": {
        "type": "Point",
        "coordinates": [
          138.97759720515555,
          -16.40724877686978
        ]
      }
    },
    {
      "type": "Feature",
      "properties": {
        "norad_id": 36411,
        "name": "EWS-G2 (GOES 15)",
        "group": "weather",
        "lat": 0.5996063672104365,
        "lon": -143.34583865233373,
        "alt_km": 35768.75267531996,
        "timestamp": "2025-12-11T05:00:25.954483+00:00",
        "meta_object_name": "EWS-G2 (GOES 15)",
        "meta_object_id": "2010-008A",
        "meta_epoch": "2025-12-10T20:58:01.180128",
        "meta_mean_motion": 1.00269266,
        "meta_eccentricity": 0.00058391,
        "meta_inclination": 0.8096,
        "meta_ra_of_asc_node": 86.063,
        "meta_arg_of_pericenter": 174.0938,
        "meta_mean_anomaly": 195.6129,
        "meta_ephemeris_type": 0,
        "meta_classification_type": "U",
        "meta_norad_cat_id": 36411,
        "meta_element_set_no": 999,
        "meta_rev_at_epoch": 5775,
        "meta_bstar": 0,
        "meta_mean_motion_dot": 4.3e-07,
        "meta_mean_motion_ddot": 0,
        "tle_line1": "1 36411U 10008A   25344.87362477  .00000043  00000+0  00000+0 0  9991",
        "tle_line2": "2 36411   0.8096  86.0630 0005839 174.0938 195.6129  1.00269266 57759"
      },
      "geometry": {
        "type": "Point",
        "coordinates": [
          -143.34583865233373,
          0.5996063672104365
        ]
      }
    }
  ]
}